$$SOE
2460728.500000000, A.D. 2025-Feb-22 00:00:00.0000, -2.750359145614412E+08, -2.491412161260656E+08, 4.302595849939046E+07,
2460735.500000000, A.D. 2025-Mar-01 00:00:00.0000, -2.663466194283906E+08, -2.556842731094819E+08, 4.329717975186820E+07,
2460742.500000000, A.D. 2025-Mar-08 00:00:00.0000, -2.574056439082221E+08, -2.619857540051511E+08, 4.352748435840843E+07,
2460749.500000000, A.D. 2025-Mar-15 00:00:00.0000, -2.482176888243410E+08, -2.680358894516224E+08, 4.371602101204492E+07,
2460756.500000000, A.D. 2025-Mar-22 00:00:00.0000, -2.387878051348991E+08, -2.738248054151888E+08, 4.386194588981336E+07,
2460763.500000000, A.D. 2025-Mar-29 00:00:00.0000, -2.291214137285861E+08, -2.793425303710334E+08, 4.396442421306343E+07,
2460770.500000000, A.D. 2025-Apr-05 00:00:00.0000, -2.192243243554647E+08, -2.845790028333676E+08, 4.402263190975514E+07,
2460777.500000000, A.D. 2025-Apr-12 00:00:00.0000, -2.091027556075971E+08, -2.895240792599574E+08, 4.403575757855158E+07,
2460784.500000000, A.D. 2025-Apr-19 00:00:00.0000, -1.987633561149770E+08, -2.941675433492706E+08, 4.400300471459256E+07,
2460791.500000000, A.D. 2025-Apr-26 00:00:00.0000, -1.882132266507966E+08, -2.984991170782806E+08, 4.392359416990688E+07,
2460798.500000000, A.D. 2025-May-03 00:00:00.0000, -1.774599429829121E+08, -3.025084736157061E+08, 4.379676685371348E+07,
2460805.500000000, A.D. 2025-May-10 00:00:00.0000, -1.665115793756929E+08, -3.061852522661838E+08, 4.362178668458953E+07,
2460812.500000000, A.D. 2025-May-17 00:00:00.0000, -1.553767326188558E+08, -3.095190756630252E+08, 4.339794380192779E+07,
2460819.500000000, A.D. 2025-May-24 00:00:00.0000, -1.440645463038906E+08, -3.124995694539264E+08, 4.312455803138272E+07,
2460826.500000000, A.D. 2025-May-31 00:00:00.0000, -1.325847348057634E+08, -3.151163843680137E+08, 4.280098260726011E+07,
2460833.500000000, A.D. 2025-Jun-07 00:00:00.0000, -1.209476072223280E+08, -3.173592196620511E+08, 4.242660830219650E+07,
2460840.500000000, A.D. 2025-Jun-14 00:00:00.0000, -1.091640934556371E+08, -3.192178488153619E+08, 4.200086813938649E+07,
2460847.500000000, A.D. 2025-Jun-21 00:00:00.0000, -9.724577100127180E+07, -3.206821509504263E+08, 4.152324231936011E+07,
2460854.500000000, A.D. 2025-Jun-28 00:00:00.0000, -8.520488906440601E+07, -3.217421464244551E+08, 4.099326322890401E+07,
2460861.500000000, A.D. 2025-Jul-05 00:00:00.0000, -7.305439122927292E+07, -3.223880346425310E+08, 4.041052085630119E+07,
2460868.500000000, A.D. 2025-Jul-12 00:00:00.0000, -6.080793754192260E+07, -3.226102350942380E+08, 3.977466866187796E+07,
2460875.500000000, A.D. 2025-Jul-19 00:00:00.0000, -4.847992544101828E+07, -3.223994323690633E+08, 3.908542984045121E+07,
2460882.500000000, A.D. 2025-Jul-26 00:00:00.0000, -3.608550890254739E+07, -3.217466253639057E+08, 3.834260394677649E+07,
2460889.500000000, A.D. 2025-Aug-02 00:00:00.0000, -2.364061525636823E+07, -3.206431807881528E+08, 3.754607386792101E+07,
2460896.500000000, A.D. 2025-Aug-09 00:00:00.0000, -1.116195912096635E+07, -3.190808910726606E+08, 3.669581312066805E+07,
2460903.500000000, A.D. 2025-Aug-16 00:00:00.0000, 1.332947202228455E+06, -3.170520367928563E+08, 3.579189343602158E+07,
2460910.500000000, A.D. 2025-Aug-23 00:00:00.0000, 1.382578779916034E+07, -3.145494535787987E+08, 3.483449257061331E+07,
2460917.500000000, A.D. 2025-Aug-30 00:00:00.0000, 2.629744268687964E+07, -3.115666027170136E+08, 3.382390232767278E+07,
2460924.500000000, A.D. 2025-Sep-06 00:00:00.0000, 3.872799213630330E+07, -3.080976442790617E+08, 3.276053694168875E+07,
2460931.500000000, A.D. 2025-Sep-13 00:00:00.0000, 5.109672486469077E+07, -3.041375149968383E+08, 3.164494170583987E+07,
2460938.500000000, A.D. 2025-Sep-20 00:00:00.0000, 6.338215416184117E+07, -2.996820121582603E+08, 3.047780132270485E+07,
2460945.500000000, A.D. 2025-Sep-27 00:00:00.0000, 7.556204381351554E+07, -2.947278799232705E+08, 2.925994803720367E+07,
2460952.500000000, A.D. 2025-Oct-04 00:00:00.0000, 8.761344260659087E+07, -2.892728968977793E+08, 2.799236966764727E+07,
2460959.500000000, A.D. 2025-Oct-11 00:00:00.0000, 9.951272782124819E+07, -2.833159651375286E+08, 2.667621736316858E+07,
2460966.500000000, A.D. 2025-Oct-18 00:00:00.0000, 1.112356587274229E+08, -2.768571999298993E+08, 2.531281289495164E+07,
2460973.500000000, A.D. 2025-Oct-25 00:00:00.0000, 1.227574408849615E+08, -2.698980192554425E+08, 2.390365531081183E+07,
2460980.500000000, A.D. 2025-Nov-01 00:00:00.0000, 1.340528018418005E+08, -2.624412316623272E+08, 2.245042677867182E+07,
2460987.500000000, A.D. 2025-Nov-08 00:00:00.0000, 1.450960786832403E+08, -2.544911211719317E+08, 2.095499742958544E+07,
2460994.500000000, A.D. 2025-Nov-15 00:00:00.0000, 1.558613178304098E+08, -2.460535277129722E+08, 1.941942899159269E+07,
2461001.500000000, A.D. 2025-Nov-22 00:00:00.0000, 1.663223875341198E+08, -2.371359211780408E+08, 1.784597700360604E+07,
2461008.500000000, A.D. 2025-Nov-29 00:00:00.0000, 1.764531027066696E+08, -2.277474661800290E+08, 1.623709152590787E+07,
2461015.500000000, A.D. 2025-Dec-06 00:00:00.0000, 1.862273593279192E+08, -2.178990757826025E+08, 1.459541636007282E+07,
2461022.500000000, A.D. 2025-Dec-13 00:00:00.0000, 1.956192780653309E+08, -2.076034556783119E+08, 1.292378629005031E+07,
2461029.500000000, A.D. 2025-Dec-20 00:00:00.0000, 2.046033594833386E+08, -1.968751359176266E+08, 1.122522195569038E+07,
2461036.500000000, A.D. 2025-Dec-27 00:00:00.0000, 2.131546483133996E+08, -1.857304858129917E+08, 9.502922546386935E+06,
2461043.500000000, A.D. 2026-Jan-03 00:00:00.0000, 2.212489035286301E+08, -1.741877109991642E+08, 7.760256311304152E+06,
2461050.500000000, A.D. 2026-Jan-10 00:00:00.0000, 2.288627722071843E+08, -1.622668319108340E+08, 6.000748775780261E+06,
2461057.500000000, A.D. 2026-Jan-17 00:00:00.0000, 2.359739649922005E+08, -1.499896426386127E+08, 4.228068639094308E+06,
2461064.500000000, A.D. 2026-Jan-24 00:00:00.0000, 2.425614305460010E+08, -1.373796493669791E+08, 2.446011406330004E+06,
2461071.500000000, A.D. 2026-Jan-31 00:00:00.0000, 2.486055261416172E+08, -1.244619880470896E+08, 6.584808664987087E+05,
2461078.500000000, A.D. 2026-Feb-07 00:00:00.0000, 2.540881814360099E+08, -1.112633214737711E+08, -1.130531421537295E+06,
2461085.500000000, A.D. 2026-Feb-14 00:00:00.0000, 2.589930526022027E+08, -9.781171638039666E+07, -2.916968432153933E+06,
2461092.500000000, A.D. 2026-Feb-21 00:00:00.0000, 2.633056641895514E+08, -8.413650106255603E+07, -4.696731469037320E+06,
2461099.500000000, A.D. 2026-Feb-28 00:00:00.0000, 2.670135348008355E+08, -7.026810397096322E+07, -6.465704921445787E+06,
2461106.500000000, A.D. 2026-Mar-07 00:00:00.0000, 2.701062819829783E+08, -5.623787732200788E+07, -8.219781569982354E+06,
2461113.500000000, A.D. 2026-Mar-14 00:00:00.0000, 2.725757069105859E+08, -4.207791060608249E+07, -9.954888477646787E+06,
2461120.500000000, A.D. 2026-Mar-21 00:00:00.0000, 2.744158588776843E+08, -2.782083401524313E+07, -1.166701296700960E+07,
2461127.500000000, A.D. 2026-Mar-28 00:00:00.0000, 2.756230763189411E+08, -1.349961396321243E+07, -1.335222798622218E+07,
2461134.500000000, A.D. 2026-Apr-04 00:00:00.0000, 2.761960030332410E+08, 8.526549595040306E+05, -1.500671646858634E+07,
2461141.500000000, A.D. 2026-Apr-11 00:00:00.0000, 2.761355797364085E+08, 1.520295779193221E+07, -1.662679434404845E+07,
2461148.500000000, A.D. 2026-Apr-18 00:00:00.0000, 2.754450115361793E+08, 2.951856336146969E+07, -1.820893185660441E+07,
2461155.500000000, A.D. 2026-Apr-25 00:00:00.0000, 2.741297123670958E+08, 4.376722155486523E+07, -1.974977287563826E+07,
2461162.500000000, A.D. 2026-May-02 00:00:00.0000, 2.721972279198154E+08, 5.791735066269763E+07, -2.124615194674170E+07,
2461169.500000000, A.D. 2026-May-09 00:00:00.0000, 2.696571391405249E+08, 7.193821205309537E+07, -2.269510890116495E+07,
2461176.500000000, A.D. 2026-May-16 00:00:00.0000, 2.665209489922422E+08, 8.580007002985251E+07, -2.409390091524988E+07,
2461183.500000000, A.D. 2026-May-23 00:00:00.0000, 2.628019551018034E+08, 9.947433606096387E+07, -2.544001187289428E+07,
2461190.500000000, A.D. 2026-May-30 00:00:00.0000, 2.585151089665346E+08, 1.129336963553622E+08, -2.673115880758189E+07,
2461197.500000000, A.D. 2026-Jun-06 00:00:00.0000, 2.536768642680289E+08, 1.261522186541117E+08, -2.796529571936696E+07,
2461204.500000000, A.D. 2026-Jun-13 00:00:00.0000, 2.483050208005317E+08, 1.391054380264759E+08, -2.914061519709249E+07,
2461211.500000000, A.D. 2026-Jun-20 00:00:00.0000, 2.424185662469631E+08, 1.517704246374823E+08, -3.025554771260449E+07,
2461218.500000000, A.D. 2026-Jun-27 00:00:00.0000, 2.360375166862730E+08, 1.641258335941622E+08, -3.130875864752361E+07,
2461225.500000000, A.D. 2026-Jul-04 00:00:00.0000, 2.291827582018758E+08, 1.761519368887225E+08, -3.229914333285352E+07,
2461232.500000000, A.D. 2026-Jul-11 00:00:00.0000, 2.218758919557642E+08, 1.878306383869074E+08, -3.322582037131983E+07,
2461239.500000000, A.D. 2026-Jul-18 00:00:00.0000, 2.141390846445427E+08, 1.991454731932712E+08, -3.408812349497627E+07,
2461246.500000000, A.D. 2026-Jul-25 00:00:00.0000, 2.059949258843632E+08, 2.100815928663099E+08, -3.488559220882042E+07,
2461253.500000000, A.D. 2026-Aug-01 00:00:00.0000, 1.974662937925367E+08, 2.206257380112087E+08, -3.561796147328094E+07,
2461260.500000000, A.D. 2026-Aug-08 00:00:00.0000, 1.885762299066002E+08, 2.307661998429510E+08, -3.628515068304718E+07,
2461267.500000000, A.D. 2026-Aug-15 00:00:00.0000, 1.793478245073744E+08, 2.404927728032411E+08, -3.688725216479643E+07,
2461274.500000000, A.D. 2026-Aug-22 00:00:00.0000, 1.698041119811386E+08, 2.497967010393526E+08, -3.742451922659353E+07,
2461281.500000000, A.D. 2026-Aug-29 00:00:00.0000, 1.599679740849803E+08, 2.586706188866903E+08, -3.789735383869445E+07,
2461288.500000000, A.D. 2026-Sep-05 00:00:00.0000, 1.498620532130345E+08, 2.671084839309642E+08, -3.830629453634881E+07,
2461295.500000000, A.D. 2026-Sep-12 00:00:00.0000, 1.395086779315280E+08, 2.751055064680866E+08, -3.865200470798917E+07,
$$EOE